{
"type": "FeatureCollection",
"name": "6171_kabkota_2025-1",
"crs": { "type": "name", "properties": { "name": "urn:ogc:def:crs:OGC:1.3:CRS84" } },
"features": [
{ "type": "Feature", "properties": { "fid": null, "gid": 611833.0, "kdprov": "61", "kdkab": "71", "nmprov": "KALIMANTAN BARAT", "nmkab": "PONTIANAK", "luas": 0.53198426321763603, "sumber": "", "periode": "2024_1", "layer": null, "path": null, "idkab": "6171" }, "geometry": { "type": "MultiPolygon", "coordinates": [ [ [ [ 109.343695035, -0.09740391099996 ], [ 109.343692049, -0.097407938999942 ], [ 109.34368896, -0.097412109999932 ], [ 109.343665497, -0.097402 ], [ 109.343116789, -0.097165632999983 ], [ 109.340830457, -0.096180750999967 ], [ 109.339852984, -0.096011070999965 ], [ 109.336822203, -0.095484956999937 ], [ 109.335309078, -0.095222292999949 ], [ 109.334237979, -0.094309448999984 ], [ 109.33174445, -0.09218433999997 ], [ 109.329992374, -0.090691133999942 ], [ 109.326924268, -0.088076342999959 ], [ 109.326872985, -0.088032636999968 ], [ 109.323406097, -0.087537365999942 ], [ 109.323352499, -0.087456347999934 ], [ 109.322728254, -0.086512721999958 ], [ 109.321276437, -0.084318117999954 ], [ 109.323559303, -0.080984708999957 ], [ 109.323612086, -0.080907633999973 ], [ 109.32361189, -0.080907459999945 ], [ 109.32357577, -0.080875169999959 ], [ 109.32166542, -0.07916730999995 ], [ 109.32052798, -0.078150433999951 ], [ 109.32052717, -0.078149709999936 ], [ 109.31763285, -0.075562179999966 ], [ 109.317218, -0.075191299999975 ], [ 109.31721795, -0.075191248999941 ], [ 109.31672709, -0.076203139999961 ], [ 109.31599278, -0.077716889999988 ], [ 109.31392765, -0.081974109999987 ], [ 109.3139273, -0.081973869999956 ], [ 109.31374888, -0.081852769999955 ], [ 109.31074666, -0.079814939999946 ], [ 109.31074682, -0.079814619999976 ], [ 109.308499142, -0.078177122999943 ], [ 109.308471161, -0.078156737999964 ], [ 109.30704496, -0.077117709999928 ], [ 109.30704479, -0.077117589999955 ], [ 109.30781541, -0.075594679999939 ], [ 109.3080966, -0.075039 ], [ 109.309040887, -0.073172874999955 ], [ 109.308787647, -0.072959948999943 ], [ 109.308651151, -0.072845181999976 ], [ 109.308646849, -0.072847850999958 ], [ 109.308424443, -0.072638153999946 ], [ 109.307565264, -0.071863528999928 ], [ 109.307543694, -0.071844081999928 ], [ 109.307425841, -0.071737827999927 ], [ 109.307208253, -0.071541652999945 ], [ 109.307091299, -0.071436208999961 ], [ 109.304934804, -0.069491940999973 ], [ 109.305343394, -0.068992026999979 ], [ 109.305549665, -0.068739652999976 ], [ 109.305748397, -0.068517245999954 ], [ 109.30609893, -0.068124951999947 ], [ 109.304834035, -0.067167559999976 ], [ 109.304828727, -0.067163541999956 ], [ 109.304742199, -0.067098049999971 ], [ 109.305278103, -0.066502035999984 ], [ 109.305417942, -0.066346511999945 ], [ 109.305585221, -0.066160469999945 ], [ 109.305909764, -0.06579952499994 ], [ 109.306148531, -0.065461957999955 ], [ 109.306288636, -0.065263878999931 ], [ 109.30540924, -0.064651110999938 ], [ 109.305404627, -0.064647896999929 ], [ 109.305477995, -0.064540077999934 ], [ 109.30499195, -0.064207319999987 ], [ 109.30480159, -0.064076989999932 ], [ 109.30469601, -0.063997789999978 ], [ 109.30444861, -0.063812199999981 ], [ 109.30418375, -0.063615368999934 ], [ 109.30415793, -0.063596189999946 ], [ 109.30404115, -0.063502499999969 ], [ 109.30386475, -0.063360979999977 ], [ 109.30385375, -0.063352149999956 ], [ 109.30385344, -0.063351908999953 ], [ 109.303836431, -0.063333468999934 ], [ 109.303705787, -0.063191831999972 ], [ 109.30362813, -0.063107639999946 ], [ 109.30343221, -0.062868123999986 ], [ 109.303372371, -0.062794968999934 ], [ 109.3032343, -0.062626174999934 ], [ 109.30320812, -0.062594169999962 ], [ 109.30320549, -0.062590949999966 ], [ 109.303196221, -0.06257850799995 ], [ 109.30312122, -0.062477829999974 ], [ 109.30297909, -0.062287019999933 ], [ 109.302957672, -0.062264188999967 ], [ 109.30290315, -0.062206069999944 ], [ 109.30289586, -0.062198299999981 ], [ 109.30273004, -0.062021529999924 ], [ 109.30272248, -0.062013479999971 ], [ 109.302642617, -0.061914910999978 ], [ 109.302642455, -0.061914944999952 ], [ 109.30262175, -0.061890043999936 ], [ 109.30261768, -0.061885078999974 ], [ 109.302609829, -0.061875499999937 ], [ 109.302600727, -0.061863362999936 ], [ 109.302600809, -0.061863307999943 ], [ 109.303076316, -0.061526632999976 ], [ 109.303072592694363, -0.06152164761461 ], [ 109.302955092, -0.061364317999958 ], [ 109.30295852, -0.06136166999995 ], [ 109.30295826, -0.061361319999944 ], [ 109.302954016, -0.061355741999934 ], [ 109.30284023, -0.06120620199994 ], [ 109.302808119, -0.061164000999951 ], [ 109.302576475, -0.060859568999949 ], [ 109.30257297, -0.060854962999941 ], [ 109.30246272, -0.060710069999971 ], [ 109.30234121, -0.060550379999939 ], [ 109.30227292, -0.060470169999976 ], [ 109.30219984, -0.060384329999979 ], [ 109.30218556, -0.060361569999943 ], [ 109.302131173, -0.060274868999954 ], [ 109.302129249, -0.060271802999987 ], [ 109.30205996, -0.060161349999929 ], [ 109.30203019, -0.060113899999984 ], [ 109.3019801, -0.060090779999939 ], [ 109.3019171, -0.060061709999964 ], [ 109.3019159, -0.060059879999929 ], [ 109.301856997, -0.05997014999998 ], [ 109.301853217, -0.059964390999933 ], [ 109.301817076, -0.059909335999977 ], [ 109.30177439, -0.059844309999968 ], [ 109.30177421, -0.059844029999962 ], [ 109.301769196, -0.059836390999977 ], [ 109.3016506, -0.059655709999965 ], [ 109.301646841, -0.059649983999983 ], [ 109.30155896, -0.059516099999942 ], [ 109.30161895, -0.059304741999946 ], [ 109.30162488, -0.059283849999934 ], [ 109.30162494, -0.059283639999943 ], [ 109.301321742, -0.058930252999973 ], [ 109.301313937, -0.058921155999941 ], [ 109.300830666, -0.058357885999958 ], [ 109.300580273, -0.058066043999931 ], [ 109.30053526, -0.058013579999964 ], [ 109.30047363, -0.057941699999959 ], [ 109.30047358, -0.057941649999974 ], [ 109.300444276, -0.057907474999985 ], [ 109.300323109, -0.057766165999967 ], [ 109.300044758, -0.057441543999971 ], [ 109.29996477, -0.057348259999972 ], [ 109.299776776, -0.057141883999977 ], [ 109.299694056, -0.057051074999955 ], [ 109.299617876, -0.056967445999941 ], [ 109.29950938, -0.05684833999994 ], [ 109.299426263, -0.056757095999957 ], [ 109.299342837, -0.056665511999938 ], [ 109.299319654, -0.056640061999938 ], [ 109.29896267, -0.056248170999936 ], [ 109.29875484, -0.056020019999949 ], [ 109.298757665, -0.056016961999942 ], [ 109.298748889, -0.05600836999997 ], [ 109.298538686, -0.055802633999978 ], [ 109.298315918, -0.055584598999927 ], [ 109.298066363, -0.055340347999969 ], [ 109.297907419, -0.055184779999931 ], [ 109.297774917, -0.055048570999928 ], [ 109.297772369, -0.055045949999964 ], [ 109.297577939, -0.054846069999942 ], [ 109.297570234, -0.054838149999966 ], [ 109.297679797108728, -0.054712909928464 ], [ 109.296779078752792, -0.053759208139845 ], [ 109.296959075465338, -0.05362759764035 ], [ 109.296787959380083, -0.053438277716248 ], [ 109.296449028, -0.053685530999931 ], [ 109.296445549, -0.053688068999976 ], [ 109.2961322, -0.053365939999933 ], [ 109.29587144, -0.053097879999948 ], [ 109.29571077, -0.052877609999947 ], [ 109.295648, -0.052791549999944 ], [ 109.29511196, -0.052194529999957 ], [ 109.29510153, -0.052182909999938 ], [ 109.294910961, -0.051970662999975 ], [ 109.294082634, -0.05104811099994 ], [ 109.293701414, -0.050623525999926 ], [ 109.293272730819993, -0.050146079145865 ], [ 109.293106173, -0.049960574999944 ], [ 109.29290915, -0.049741139999984 ], [ 109.292689805, -0.04949683799993 ], [ 109.29268581, -0.049492388999971 ], [ 109.29244835, -0.049227909999958 ], [ 109.292318654, -0.049083457999927 ], [ 109.292293275, -0.049055191999975 ], [ 109.29223282, -0.048987859999954 ], [ 109.291854189618505, -0.048566159561977 ], [ 109.291413316822897, -0.04807513649544 ], [ 109.28977344, -0.046248719999937 ], [ 109.289633190737305, -0.046092515957264 ], [ 109.28735581, -0.043556059999961 ], [ 109.28734902, -0.043548489999977 ], [ 109.287347567, -0.043546871999985 ], [ 109.28721209, -0.043673079999968 ], [ 109.284973863, -0.04090342599994 ], [ 109.284857079, -0.041013649999973 ], [ 109.284441299, -0.041406049999986 ], [ 109.283801259, -0.041969839999988 ], [ 109.283798719, -0.041972079999943 ], [ 109.283742229, -0.042028929999959 ], [ 109.283536339, -0.042236129999943 ], [ 109.283123999, -0.042651109999954 ], [ 109.282730919, -0.043046699999941 ], [ 109.282423888, -0.04335568999995 ], [ 109.282382808, -0.043409179999978 ], [ 109.282331979, -0.043475379999962 ], [ 109.282329335, -0.043471075999951 ], [ 109.28232603, -0.043475379999962 ], [ 109.28205035, -0.043026679999979 ], [ 109.28200771, -0.042905359999959 ], [ 109.28198488, -0.042840409999946 ], [ 109.28186973, -0.042682669999986 ], [ 109.28181125, -0.042602559999983 ], [ 109.28177425, -0.042502249999929 ], [ 109.28135258, -0.041800919999966 ], [ 109.28036372, -0.040102599999957 ], [ 109.27996694, -0.039425229999949 ], [ 109.279743997, -0.039044631999955 ], [ 109.27936124, -0.038391209999927 ], [ 109.27936032, -0.038389629999927 ], [ 109.2791658, -0.038099239999952 ], [ 109.27519615, -0.032173119999932 ], [ 109.275196064, -0.032172990999929 ], [ 109.274622213, -0.031316319999972 ], [ 109.27414089, -0.030597779999935 ], [ 109.273864314349993, -0.030184894984218 ], [ 109.275834625393841, -0.027763235155004 ], [ 109.277820499812748, -0.025164976554056 ], [ 109.279230163103065, -0.023226689529866 ], [ 109.279233402866041, -0.023232400570058 ], [ 109.280177839954533, -0.021981427135188 ], [ 109.28061876958283, -0.021463153878828 ], [ 109.281458331012118, -0.020667442265001 ], [ 109.281944646396937, -0.020305720077947 ], [ 109.281946756521577, -0.02031419933115 ], [ 109.282163197125897, -0.020171923689151 ], [ 109.282718273141171, -0.019807048546239 ], [ 109.284802055895554, -0.018883352059703 ], [ 109.285606495413546, -0.018488797471644 ], [ 109.285349143, -0.016944681999972 ], [ 109.285353976, -0.016916221999967 ], [ 109.285360194, -0.01687960699997 ], [ 109.28535718, -0.016821899999973 ], [ 109.28535222, -0.016727059999944 ], [ 109.28535219, -0.016726369999963 ], [ 109.28537058, -0.016633779999949 ], [ 109.28539493, -0.016511229999936 ], [ 109.28545687, -0.016268719999979 ], [ 109.28547186, -0.016210039999984 ], [ 109.28549517, -0.016045759999937 ], [ 109.2855317, -0.015788359999939 ], [ 109.28554189, -0.01574526999997 ], [ 109.285580638, -0.01558143399995 ], [ 109.28559911, -0.015503329999946 ], [ 109.28565993, -0.015246209999933 ], [ 109.28567686, -0.015169489999956 ], [ 109.28583089, -0.014471699999945 ], [ 109.28590783, -0.014136079999968 ], [ 109.28590783, -0.013826279999935 ], [ 109.28590489, -0.01379668999994 ], [ 109.28589074, -0.013654169999947 ], [ 109.28586639, -0.013552019999964 ], [ 109.28583945, -0.013439029999974 ], [ 109.28581739, -0.013362299999931 ], [ 109.28574548, -0.013112229999933 ], [ 109.28574542, -0.013112009999935 ], [ 109.28573672, -0.01307136999998 ], [ 109.28573426, -0.013059869999959 ], [ 109.28564984, -0.012665609999952 ], [ 109.2856343, -0.012363319999967 ], [ 109.28565001, -0.012300069999986 ], [ 109.28570269, -0.012087939999958 ], [ 109.285746262, -0.01198375499996 ], [ 109.28576242, -0.011945119999957 ], [ 109.28579026, -0.011878579999971 ], [ 109.28580632, -0.011840169999972 ], [ 109.285830507, -0.011782337999939 ], [ 109.28583946, -0.011760929999977 ], [ 109.28615118, -0.011016539999954 ], [ 109.28619074, -0.010922059999928 ], [ 109.28620703, -0.010883159999934 ], [ 109.28629251, -0.010633599999949 ], [ 109.286373312, -0.010394984999959 ], [ 109.28640445, -0.010303029999936 ], [ 109.286412103, -0.010280427999929 ], [ 109.28642073, -0.010254949999929 ], [ 109.2864482, -0.01018703999996 ], [ 109.286579101, -0.009863434999943 ], [ 109.28668032, -0.009613209999941 ], [ 109.28671405, -0.009529825999947 ], [ 109.28672745, -0.009496699999943 ], [ 109.28683213, -0.009177769999956 ], [ 109.286882473, -0.009024376999946 ], [ 109.28689943, -0.00897270999996 ], [ 109.28689964, -0.008970889999947 ], [ 109.28690146, -0.008954989999948 ], [ 109.28690248, -0.008946091999981 ], [ 109.28692507, -0.008748969999944 ], [ 109.28692506, -0.008748869999984 ], [ 109.286922211, -0.008723032999979 ], [ 109.286932505, -0.008600978999938 ], [ 109.286956428, -0.008317311999975 ], [ 109.286962365, -0.008246914999971 ], [ 109.287000671, -0.007792719999947 ], [ 109.287019801, -0.007565887999931 ], [ 109.28703939, -0.007412639999929 ], [ 109.28703942, -0.007411979999973 ], [ 109.287045816, -0.007257424999985 ], [ 109.287110234, -0.006493611999933 ], [ 109.287070314, -0.00628070599994 ], [ 109.287069109, -0.006274277999982 ], [ 109.28704073, -0.006167149999955 ], [ 109.28703621, -0.006150069999934 ], [ 109.28703614, -0.006149939999949 ], [ 109.28695959, -0.006002809999933 ], [ 109.28694218, -0.005969349999933 ], [ 109.286921358, -0.005890749999945 ], [ 109.28691952, -0.00588380999995 ], [ 109.28690799, -0.005840259999953 ], [ 109.2869045, -0.005813199999982 ], [ 109.286875785, -0.005590157999968 ], [ 109.28687486, -0.005582969999981 ], [ 109.28687291, -0.005567849999978 ], [ 109.286868072, -0.00553026299998 ], [ 109.286877811, -0.005527594999938 ], [ 109.286858242, -0.005375559999957 ], [ 109.286823002, -0.005161499999927 ], [ 109.286765902, -0.004814689999932 ], [ 109.286733582, -0.004663108999982 ], [ 109.286726682, -0.004630749999936 ], [ 109.286718694, -0.004593284999945 ], [ 109.286661632, -0.004325669999957 ], [ 109.286659042, -0.004305589999943 ], [ 109.286656198, -0.004283562999949 ], [ 109.286619112, -0.003996319999945 ], [ 109.286614307, -0.003959112999951 ], [ 109.286595762, -0.003815479999964 ], [ 109.286589573, -0.003701862999944 ], [ 109.286586432, -0.003644189999937 ], [ 109.286586382, -0.003643379999968 ], [ 109.286577556, -0.003481393999951 ], [ 109.28640755, -0.003442534999987 ], [ 109.286393472, -0.003241921999972 ], [ 109.28646427, -0.002290000999955 ], [ 109.286502556, -0.001962108999978 ], [ 109.286535316, -0.001681540999929 ], [ 109.286571932, -0.00136794499997 ], [ 109.286609256, -0.001048286999948 ], [ 109.286641686, -0.00077054499997 ], [ 109.286680723, -0.000436216999954 ], [ 109.286679641, -0.000436114999959 ], [ 109.286710627, -0.000200457999943 ], [ 109.286382983, -0.000165557999941 ], [ 109.286382983, -0.000081355999959 ], [ 109.286382983, 0.00026071900004 ], [ 109.286382983, 0.000516728000031 ], [ 109.286521561, 0.001964097000032 ], [ 109.28653189, 0.001987925000029 ], [ 109.287710719, 0.004707401000063 ], [ 109.288076713, 0.00555172400004 ], [ 109.288107508, 0.005597916000058 ], [ 109.288564344, 0.005382934000059 ], [ 109.288575224, 0.005411762000043 ], [ 109.288788495, 0.005947923000061 ], [ 109.288881581, 0.006181939000045 ], [ 109.289021644, 0.00646984800005 ], [ 109.289983488, 0.008406524000061 ], [ 109.28998914, 0.00841940100002 ], [ 109.290003232, 0.008453011000019 ], [ 109.29000932, 0.008467580000053 ], [ 109.291133841, 0.011159710000069 ], [ 109.29116949, 0.011245050000071 ], [ 109.291290721, 0.01152403000002 ], [ 109.291344357, 0.011647449000061 ], [ 109.29136785, 0.011701510000013 ], [ 109.29155102, 0.012103850000071 ], [ 109.29157566, 0.012157980000044 ], [ 109.29163379, 0.012311620000042 ], [ 109.29180236, 0.012757090000032 ], [ 109.29180236, 0.012757980000056 ], [ 109.29180236, 0.012928260000018 ], [ 109.29180259, 0.012928910000026 ], [ 109.292035985, 0.013588146000069 ], [ 109.292038416, 0.013595011000056 ], [ 109.292107401, 0.01378986000003 ], [ 109.29214241, 0.013888740000023 ], [ 109.292162399, 0.013951831000042 ], [ 109.292155353, 0.013980295000062 ], [ 109.292158253, 0.013987958000027 ], [ 109.292254104, 0.014241280000013 ], [ 109.292261215, 0.014263726000022 ], [ 109.29227613, 0.014310801000014 ], [ 109.292284941, 0.014338620000042 ], [ 109.29237106, 0.014610440000067 ], [ 109.29239344, 0.014682660000052 ], [ 109.292448493, 0.014860322000061 ], [ 109.29253466, 0.015138390000055 ], [ 109.292644376, 0.015492455000066 ], [ 109.292657288, 0.01553412100002 ], [ 109.293023838, 0.016717011000034 ], [ 109.293078908, 0.016894727000026 ], [ 109.29337036, 0.017835270000034 ], [ 109.293379174, 0.017862489000034 ], [ 109.29342624, 0.018007841000036 ], [ 109.29342671, 0.018009350000053 ], [ 109.293535276908585, 0.018344644030589 ], [ 109.293686366, 0.01881126200004 ], [ 109.293878332, 0.019404120000049 ], [ 109.293896120719964, 0.019459057170922 ], [ 109.293897887, 0.019464512000068 ], [ 109.29393827, 0.01958923000007 ], [ 109.293960378, 0.019652952000059 ], [ 109.293982568, 0.019716910000055 ], [ 109.294083169, 0.02000686600007 ], [ 109.294269949, 0.020545213000046 ], [ 109.294389632, 0.02089017000003 ], [ 109.294506019, 0.021225626000052 ], [ 109.294648292, 0.021635694000052 ], [ 109.294679136, 0.021724594000035 ], [ 109.2947158, 0.021830270000067 ], [ 109.29471585, 0.021830250000055 ], [ 109.294826245, 0.022148429000031 ], [ 109.294902791, 0.022369049000016 ], [ 109.294941455, 0.022480484000025 ], [ 109.295002838, 0.022657401000053 ], [ 109.295016603, 0.022697074000057 ], [ 109.295063925, 0.022833462000045 ], [ 109.295071014126634, 0.022853894582934 ], [ 109.295083652, 0.02289032000005 ], [ 109.295120066, 0.02299527000002 ], [ 109.295163571, 0.023120660000079 ], [ 109.295165828, 0.023127162000038 ], [ 109.29525006, 0.02336992300007 ], [ 109.295287128090777, 0.023481863822516 ], [ 109.29529012, 0.023490899000019 ], [ 109.295630427, 0.024518571000049 ], [ 109.295727901, 0.024812930000038 ], [ 109.29585804, 0.025205930000016 ], [ 109.29599707, 0.02559257000008 ], [ 109.29646336, 0.026889320000066 ], [ 109.296668157, 0.027492030000075 ], [ 109.29671547, 0.027631270000025 ], [ 109.296728338, 0.027669138000019 ], [ 109.29685036, 0.028028240000015 ], [ 109.296915772, 0.028216900000077 ], [ 109.29737354, 0.029537090000014 ], [ 109.297471601, 0.029819900000066 ], [ 109.299779841, 0.03211195200004 ], [ 109.302111713, 0.034015520000018 ], [ 109.305109834, 0.036371187000039 ], [ 109.307774208, 0.037754221000056 ], [ 109.308226927, 0.037989220000045 ], [ 109.30925581, 0.038096200000045 ], [ 109.309807156, 0.037973313000058 ], [ 109.310503081, 0.037818201000042 ], [ 109.31165961, 0.037560430000044 ], [ 109.312741263, 0.037279973000067 ], [ 109.312741331, 0.037279963000057 ], [ 109.31285424, 0.037259001000046 ], [ 109.31456033, 0.03694217000003 ], [ 109.31466532, 0.036919420000063 ], [ 109.314766803, 0.03689742700004 ], [ 109.31573758, 0.036687050000066 ], [ 109.31631268, 0.036562420000047 ], [ 109.31728273, 0.036352200000063 ], [ 109.31746584, 0.036312701000045 ], [ 109.31860611, 0.036066730000073 ], [ 109.318870427, 0.036008529000072 ], [ 109.31888786, 0.036004691000072 ], [ 109.31921109, 0.035933520000067 ], [ 109.31961579, 0.03582875900003 ], [ 109.31987278, 0.035762230000052 ], [ 109.320035222, 0.035729812000053 ], [ 109.32051408, 0.035634249000052 ], [ 109.32059135, 0.035618829000034 ], [ 109.32082313, 0.035572570000056 ], [ 109.321382, 0.035461140000057 ], [ 109.321382968, 0.035460947000053 ], [ 109.321382945, 0.035461125000029 ], [ 109.321849386, 0.035368763000065 ], [ 109.322283154, 0.035256529000036 ], [ 109.32242423, 0.035220200000023 ], [ 109.322902848, 0.035125301000047 ], [ 109.323289654, 0.035050249000041 ], [ 109.324333246, 0.034772839000034 ], [ 109.324522839, 0.034722441000044 ], [ 109.325992868, 0.03428990700007 ], [ 109.32610181, 0.034257920000061 ], [ 109.326318834, 0.034186733000072 ], [ 109.32639081, 0.034163124000022 ], [ 109.326399297, 0.034160340000025 ], [ 109.32669261, 0.034064130000042 ], [ 109.326793987, 0.034046859000048 ], [ 109.3271241, 0.033990620000043 ], [ 109.327181895, 0.033978877000043 ], [ 109.327891464, 0.03383579600006 ], [ 109.328337909, 0.033720282000044 ], [ 109.329683486, 0.033305058000042 ], [ 109.330339103, 0.033127105000068 ], [ 109.330416664, 0.033103768000037 ], [ 109.330485664, 0.033083007000061 ], [ 109.33082978, 0.032980960000036 ], [ 109.331506836, 0.032775753000063 ], [ 109.331561461, 0.032759317000055 ], [ 109.331561746, 0.032759051000029 ], [ 109.332382326, 0.03245913800003 ], [ 109.332577569, 0.032390315000042 ], [ 109.333710851, 0.031937627000036 ], [ 109.333713807, 0.031936456000033 ], [ 109.33546853, 0.031241424000033 ], [ 109.33602505, 0.031016315000045 ], [ 109.33713386, 0.030571440000071 ], [ 109.338003046, 0.030291955000059 ], [ 109.338040097, 0.030280041000019 ], [ 109.33901644, 0.029966100000029 ], [ 109.339355552, 0.029894017000054 ], [ 109.34000292, 0.029756410000062 ], [ 109.34102871, 0.029562540000027 ], [ 109.34223922, 0.029317250000014 ], [ 109.342617747, 0.029256552000044 ], [ 109.342579658, 0.029262579000036 ], [ 109.342617747, 0.029256552 ], [ 109.342617844, 0.029256537 ], [ 109.343186269, 0.029166596 ], [ 109.34320512, 0.02916396 ], [ 109.343364197, 0.029141825 ], [ 109.343703364, 0.029095808 ], [ 109.343704681, 0.029094927 ], [ 109.345360424, 0.02871292 ], [ 109.34697911, 0.02834132 ], [ 109.34727791, 0.02826115 ], [ 109.34752629, 0.02819451 ], [ 109.347607985, 0.02817259 ], [ 109.347760644, 0.028132354 ], [ 109.347820008, 0.028119608 ], [ 109.34782184, 0.028119933 ], [ 109.348014178, 0.028078179 ], [ 109.34812469, 0.02805419 ], [ 109.34846282, 0.02798159 ], [ 109.348568481, 0.027957851 ], [ 109.348687028, 0.027932116 ], [ 109.349031998, 0.027833553 ], [ 109.349032096, 0.027833525 ], [ 109.34931124, 0.02775486 ], [ 109.349516767, 0.027704206 ], [ 109.350285486, 0.027516892 ], [ 109.350909437, 0.02735011 ], [ 109.350985977, 0.027329651 ], [ 109.350986074, 0.027329625 ], [ 109.35227104, 0.02703861 ], [ 109.35352696, 0.02671679 ], [ 109.353675581, 0.026678705 ], [ 109.354156991, 0.026555343 ], [ 109.35465123, 0.0264287 ], [ 109.355065975, 0.026339233000047 ], [ 109.355773207, 0.026186671000062 ], [ 109.35698814, 0.025924590000035 ], [ 109.35698966, 0.025923720000029 ], [ 109.35743327, 0.02566941000003 ], [ 109.35806387, 0.02533955000007 ], [ 109.36113308, 0.024249990000039 ], [ 109.361602674, 0.024079584000044 ], [ 109.3616489, 0.024062810000029 ], [ 109.36251861, 0.02375317000001 ], [ 109.36330878, 0.023438180000016 ], [ 109.36343621, 0.023390951000062 ], [ 109.363460184, 0.023382065000014 ], [ 109.36433899, 0.023056360000054 ], [ 109.36437471, 0.02304312000007 ], [ 109.36505006, 0.022810530000078 ], [ 109.36518078, 0.022765510000041 ], [ 109.365328311, 0.022721142000016 ], [ 109.36558912, 0.022642720000021 ], [ 109.365589291, 0.022642673000068 ], [ 109.365898299, 0.022565918000044 ], [ 109.365929731, 0.02255811100002 ], [ 109.36599746, 0.02254129000004 ], [ 109.366118941, 0.022503661000026 ], [ 109.36648005, 0.022391810000042 ], [ 109.366641361, 0.022342511000036 ], [ 109.366683071, 0.022329762000024 ], [ 109.36737097, 0.022119540000055 ], [ 109.36802519, 0.021933890000063 ], [ 109.36816114, 0.021895310000047 ], [ 109.36816202, 0.021895049000012 ], [ 109.368687431, 0.021737352000064 ], [ 109.36901494, 0.021639060000036 ], [ 109.36952404, 0.021489570000022 ], [ 109.36965797, 0.021452449000036 ], [ 109.36976702, 0.021422220000027 ], [ 109.37025587, 0.021286700000079 ], [ 109.37058997, 0.021179930000062 ], [ 109.370664941, 0.021128291000016 ], [ 109.370690171, 0.021110912000031 ], [ 109.37069073, 0.021110530000049 ], [ 109.37075952, 0.021081230000054 ], [ 109.37082861, 0.021051800000068 ], [ 109.37089683, 0.021042640000072 ], [ 109.37090816, 0.02104112000006 ], [ 109.37100892, 0.020998410000059 ], [ 109.37104842, 0.020980690000043 ], [ 109.37112428, 0.020946670000058 ], [ 109.37112441, 0.020946610000061 ], [ 109.37112479, 0.020938460000027 ], [ 109.37112576, 0.020917490000036 ], [ 109.371140705, 0.020736960000018 ], [ 109.37110455, 0.020613190000054 ], [ 109.3710596, 0.020459330000039 ], [ 109.37102894, 0.020205610000067 ], [ 109.37099844, 0.019953180000073 ], [ 109.37092851, 0.019542510000068 ], [ 109.37089891, 0.019357720000077 ], [ 109.37087024, 0.019178770000052 ], [ 109.37086013, 0.019155490000062 ], [ 109.37078866, 0.018991030000053 ], [ 109.37066046, 0.018779830000015 ], [ 109.37057899, 0.018627510000049 ], [ 109.37057887, 0.018627290000036 ], [ 109.37060218, 0.018474760000056 ], [ 109.37067046, 0.018358440000038 ], [ 109.3707537, 0.018216620000029 ], [ 109.37075378, 0.018216140000046 ], [ 109.37077701, 0.018075820000027 ], [ 109.37078497, 0.017963630000053 ], [ 109.37082364, 0.017418740000034 ], [ 109.370768601, 0.017040108000055 ], [ 109.37075371, 0.016937670000056 ], [ 109.37056732, 0.016578680000064 ], [ 109.37048565, 0.016421390000062 ], [ 109.37041076, 0.016289440000041 ], [ 109.370310618, 0.016113001000063 ], [ 109.37029918, 0.016092850000058 ], [ 109.37029349, 0.015966940000046 ], [ 109.37028752, 0.015834720000036 ], [ 109.370296369, 0.015813664000054 ], [ 109.37041573, 0.015529650000071 ], [ 109.37042754, 0.015440500000073 ], [ 109.37042757, 0.015440510000082 ], [ 109.37042758, 0.01544044000002 ], [ 109.37042755, 0.015440430000074 ], [ 109.370429233, 0.01542772100004 ], [ 109.37043651, 0.015372750000035 ], [ 109.37046235, 0.015177640000041 ], [ 109.37043905, 0.01483737000006 ], [ 109.37033415, 0.014497100000029 ], [ 109.37036912, 0.014344560000035 ], [ 109.37057439, 0.014245060000057 ], [ 109.37068379, 0.014192030000059 ], [ 109.37069546, 0.014051230000061 ], [ 109.37061222, 0.013852890000064 ], [ 109.37034582, 0.013218150000062 ], [ 109.3703046, 0.013087270000018 ], [ 109.37025822, 0.01294 ], [ 109.37007925, 0.012560990000056 ], [ 109.36999617, 0.012385070000048 ], [ 109.37006611, 0.011986130000018 ], [ 109.37003115, 0.011681060000059 ], [ 109.36982136, 0.010812780000026 ], [ 109.36980953, 0.010779440000023 ], [ 109.36970481, 0.010484240000042 ], [ 109.36971502, 0.010404610000026 ], [ 109.36975143, 0.010120500000027 ], [ 109.36963507, 0.009910620000028 ], [ 109.36947172, 0.009615960000073 ], [ 109.36947187, 0.009615840000038 ], [ 109.369504019, 0.00959156800008 ], [ 109.3698913, 0.009299160000068 ], [ 109.37008943, 0.009205290000067 ], [ 109.37042742, 0.009170090000056 ], [ 109.37045285, 0.009154090000043 ], [ 109.37049392, 0.009128247000031 ], [ 109.37052066, 0.009111420000062 ], [ 109.37055508, 0.009042120000058 ], [ 109.37060225, 0.008947150000044 ], [ 109.37067278, 0.008692710000042 ], [ 109.37073159, 0.008480550000054 ], [ 109.37074211, 0.008442610000028 ], [ 109.370742476, 0.008440216000056 ], [ 109.37074457, 0.008426515000045 ], [ 109.37083535, 0.007832470000043 ], [ 109.37084436, 0.007700970000035 ], [ 109.37085866, 0.007492200000047 ], [ 109.37092803, 0.007298220000045 ], [ 109.37096356, 0.007198860000071 ], [ 109.37107246, 0.007106540000045 ], [ 109.371185, 0.007011130000012 ], [ 109.37118512, 0.00701097000006 ], [ 109.371232889, 0.006948089000042 ], [ 109.37126228, 0.006909400000043 ], [ 109.371268719, 0.006900923000031 ], [ 109.37133652, 0.006811660000045 ], [ 109.37135141, 0.006736700000022 ], [ 109.37147638, 0.006107650000041 ], [ 109.37165256, 0.00523194000004 ], [ 109.37166286, 0.005180700000027 ], [ 109.37184935, 0.003948680000051 ], [ 109.37202757, 0.003495410000028 ], [ 109.37207079, 0.003385480000019 ], [ 109.37222231, 0.002505460000067 ], [ 109.37225727, 0.002059590000038 ], [ 109.37235051, 0.001824920000037 ], [ 109.37236435, 0.001692550000022 ], [ 109.37237382, 0.001601980000029 ], [ 109.37243915, 0.001442270000027 ], [ 109.37245541, 0.001402510000038 ], [ 109.3724555, 0.001402400000079 ], [ 109.37266509, 0.001121050000052 ], [ 109.3726652, 0.001120910000053 ], [ 109.37275844, 0.000804100000029 ], [ 109.372769383, 0.000775180000064 ], [ 109.37282183, 0.000636580000041 ], [ 109.37285168, 0.000557700000062 ], [ 109.37295994, 0.000495419000058 ], [ 109.37301485, 0.000463830000052 ], [ 109.37306041, 0.000413370000051 ], [ 109.3731314, 0.000334760000035 ], [ 109.37313267, 0.000307740000043 ], [ 109.37314305, 0.000088360000062 ], [ 109.37319748, -0.00027952999995 ], [ 109.37322463, -0.000463109999944 ], [ 109.373297762, -0.000554056999933 ], [ 109.37346395, -0.000760729999977 ], [ 109.37361865, -0.000953109999963 ], [ 109.3736209, -0.000955919999968 ], [ 109.37380738, -0.001061519999953 ], [ 109.37386093, -0.001123139999958 ], [ 109.37405214, -0.00134312999995 ], [ 109.37422696, -0.001437 ], [ 109.37435517, -0.001601269999983 ], [ 109.37452884, -0.001768509999981 ], [ 109.37462323, -0.001859399999952 ], [ 109.37485998, -0.002042129999958 ], [ 109.37497288, -0.00212927499997 ], [ 109.37558874, -0.002176069999968 ], [ 109.37559059, -0.002176209999956 ], [ 109.37565631, -0.002214379999941 ], [ 109.37589362, -0.00235220999997 ], [ 109.37613607, -0.002596299999946 ], [ 109.37616169, -0.002622089999942 ], [ 109.37616166, -0.002622369999936 ], [ 109.37613838, -0.002868489999975 ], [ 109.375953098, -0.002943100999978 ], [ 109.37578873, -0.003009289999968 ], [ 109.37578884, -0.00301028999997 ], [ 109.37581204, -0.003208759999958 ], [ 109.37604514, -0.003455169999934 ], [ 109.37604476, -0.003457389999942 ], [ 109.37598686, -0.00379543999998 ], [ 109.37582369, -0.004053579999943 ], [ 109.37582291, -0.004057869999947 ], [ 109.37580038, -0.004182649999958 ], [ 109.37598071, -0.004440629999974 ], [ 109.37602059, -0.004497679999928 ], [ 109.37602183, -0.00449944999997 ], [ 109.37621996, -0.005039189999943 ], [ 109.37648802, -0.005391199999965 ], [ 109.37651133, -0.005754939999978 ], [ 109.37662579, -0.005923359999935 ], [ 109.37666284, -0.005977879999938 ], [ 109.37701249, -0.006282949999965 ], [ 109.37707077, -0.00657628999995 ], [ 109.37712726, -0.006775339999931 ], [ 109.37718723, -0.006986639999988 ], [ 109.37718732, -0.006986959999956 ], [ 109.37752531, -0.007280299999944 ], [ 109.3775679, -0.007298679999961 ], [ 109.3776069, -0.007315509999952 ], [ 109.377580965, -0.00738338899993 ], [ 109.37749034, -0.007620579999982 ], [ 109.37758358, -0.00813684999998 ], [ 109.377586443, -0.008145248999934 ], [ 109.377588451, -0.008151139999944 ], [ 109.37785164, -0.008923 ], [ 109.37788144, -0.009223009999979 ], [ 109.37790992, -0.009509679999956 ], [ 109.377965525, -0.010752619999951 ], [ 109.3779681, -0.010810169999963 ], [ 109.37796818, -0.010812099999956 ], [ 109.37807967, -0.010876239999966 ], [ 109.37813135, -0.01090596999996 ], [ 109.37814301, -0.011070239999935 ], [ 109.37810525, -0.01112725999997 ], [ 109.37807378, -0.011174779999985 ], [ 109.37807308, -0.011175839999967 ], [ 109.37789825, -0.011199309999938 ], [ 109.37774995, -0.011362829999948 ], [ 109.3776535, -0.011469179999955 ], [ 109.37765298, -0.011470529999948 ], [ 109.377573128, -0.011679542999955 ], [ 109.37747867, -0.011926789999958 ], [ 109.37747867, -0.012149719999974 ], [ 109.37755515, -0.012235279999976 ], [ 109.37758356, -0.012267059999941 ], [ 109.37758486, -0.01226694999997 ], [ 109.37763222, -0.012262799999971 ], [ 109.37785163, -0.01224359999998 ], [ 109.37818904, -0.012114749999976 ], [ 109.37818962, -0.012114529999964 ], [ 109.37833582, -0.01215867999997 ], [ 109.37842272, -0.01218492999994 ], [ 109.37855351, -0.012448279999939 ], [ 109.37856258, -0.012466539999938 ], [ 109.37856257, -0.012466719999968 ], [ 109.37853956, -0.012744639999944 ], [ 109.37853927, -0.012748139999932 ], [ 109.37834113, -0.013041479999979 ], [ 109.37828141, -0.01309198999997 ], [ 109.37804975, -0.013287879999952 ], [ 109.37779948, -0.013502509999969 ], [ 109.37773709, -0.013556019999955 ], [ 109.37773507, -0.013557749999967 ], [ 109.37769834, -0.013636989999949 ], [ 109.37765348, -0.013733749999976 ], [ 109.3776634, -0.013760859999937 ], [ 109.37768802, -0.013828119999976 ], [ 109.37768819, -0.013828589999957 ], [ 109.377689568, -0.013832353999936 ], [ 109.37773507, -0.013956689999938 ], [ 109.37786327, -0.014038829999947 ], [ 109.37794596, -0.013938929999941 ], [ 109.37809637, -0.013757219999947 ], [ 109.37836444, -0.013581219999936 ], [ 109.37836788, -0.01357928999994 ], [ 109.37867912, -0.013405219999926 ], [ 109.37894719, -0.01345215999993 ], [ 109.378961026, -0.013474047999979 ], [ 109.379005015, -0.013543639999971 ], [ 109.37902838, -0.013580599999957 ], [ 109.37902877, -0.013581229999947 ], [ 109.37906374, -0.013968429999984 ], [ 109.37900546, -0.014203109999932 ], [ 109.37884229, -0.014449509999968 ], [ 109.37876137, -0.01456354999994 ], [ 109.37872574, -0.014613779999938 ], [ 109.37862316, -0.01466143999994 ], [ 109.37811967, -0.014895379999934 ], [ 109.3777234, -0.015071379999943 ], [ 109.377715324, -0.015091126999948 ], [ 109.377708181, -0.015108590999942 ], [ 109.37764182, -0.015270849999984 ], [ 109.37765478, -0.015290419999933 ], [ 109.37773506, -0.015411649999984 ], [ 109.37793319, -0.015493789999944 ], [ 109.37832469, -0.015516309999959 ], [ 109.37834111, -0.015517259999974 ], [ 109.37834565, -0.015519749999949 ], [ 109.37859752, -0.015658059999966 ], [ 109.37880169, -0.015807549999974 ], [ 109.37885393, -0.015845799999966 ], [ 109.37888214, -0.015894479999935 ], [ 109.37893552, -0.015986599999969 ], [ 109.37890984, -0.016022149999967 ], [ 109.37884228, -0.016115669999986 ], [ 109.378262842, -0.016578312999972 ], [ 109.37816801, -0.016654029999936 ], [ 109.37816628, -0.01665540999994 ], [ 109.37813411, -0.016759039999952 ], [ 109.378108, -0.016843149999947 ], [ 109.37805509, -0.017162739999953 ], [ 109.37804973, -0.017195149999961 ], [ 109.3780489, -0.017205679999967 ], [ 109.37801476, -0.017641029999933 ], [ 109.37801476, -0.017847019999977 ], [ 109.37801476, -0.017875699999941 ], [ 109.37798343, -0.017973459999948 ], [ 109.3778982, -0.018239439999941 ], [ 109.37768839, -0.018435569999949 ], [ 109.37757186, -0.018544509999978 ], [ 109.37739703, -0.018861309999975 ], [ 109.377290738, -0.019225111999969 ], [ 109.37728749, -0.01923622999994 ], [ 109.37728073, -0.019259379999937 ], [ 109.37728048, -0.019260249999946 ], [ 109.37725305, -0.019321 ], [ 109.37710565, -0.019647449999984 ], [ 109.37703728, -0.019873609999939 ], [ 109.37702406, -0.019917319999936 ], [ 109.377053975, -0.020354049999988 ], [ 109.377059555, -0.020435540999927 ], [ 109.37707067, -0.020597869999966 ], [ 109.377046152, -0.020681184999951 ], [ 109.37701425, -0.020789589999937 ], [ 109.37697743, -0.020914669999968 ], [ 109.37678499, -0.021155259999954 ], [ 109.37676461, -0.021180738999933 ], [ 109.37658027, -0.021411189999982 ], [ 109.37655111, -0.021477439999958 ], [ 109.376051279, -0.022710849999962 ], [ 109.376787251, -0.023033643999955 ], [ 109.37686383, -0.023067230999977 ], [ 109.377039459, -0.023144260999972 ], [ 109.377251914, -0.023236967999936 ], [ 109.377505648, -0.023348457999935 ], [ 109.377802783, -0.023477683999946 ], [ 109.377830505, -0.023489740999939 ], [ 109.378079765, -0.023593092999937 ], [ 109.378224562, -0.023653130999958 ], [ 109.378289038, -0.023680289999962 ], [ 109.37850026, -0.023768299999968 ], [ 109.37904809, -0.023996559999948 ], [ 109.379391104, -0.024076744999949 ], [ 109.379401934, -0.024079247999971 ], [ 109.379431036, -0.024085973999945 ], [ 109.379483622, -0.024098126999956 ], [ 109.379775361, -0.024166570999967 ], [ 109.38090597, -0.024431820999957 ], [ 109.380942214, -0.024440323999953 ], [ 109.380942484, -0.024439406999934 ], [ 109.381042051, -0.024462681999978 ], [ 109.381423221, -0.024536319999933 ], [ 109.382872556, -0.02481630399996 ], [ 109.382262782, -0.027525209999967 ], [ 109.381823691, -0.029475862999962 ], [ 109.381823445, -0.029476959999951 ], [ 109.382173385, -0.029552621999931 ], [ 109.382163335, -0.02958528599993 ], [ 109.382097722, -0.029798525999988 ], [ 109.382135553, -0.029864730999986 ], [ 109.38210718, -0.029930935999969 ], [ 109.382050433, -0.029949850999979 ], [ 109.382007316, -0.030044497999937 ], [ 109.381974586, -0.030066458999961 ], [ 109.381954204, -0.030112677999974 ], [ 109.381657933, -0.030784504999932 ], [ 109.381199228, -0.03117227599995 ], [ 109.380012601, -0.032318753999956 ], [ 109.379944087687733, -0.032384949405887 ], [ 109.379545354771579, -0.032304457527482 ], [ 109.37954516580217, -0.032295133833401 ], [ 109.379497968155135, -0.032279986681563 ], [ 109.379159519303698, -0.032147989216659 ], [ 109.37898018204713, -0.032078046408084 ], [ 109.377632217332248, -0.031712172598271 ], [ 109.377633492, -0.03174828899995 ], [ 109.377894132, -0.031820573999943 ], [ 109.378059748, -0.031866504999922 ], [ 109.378057159, -0.031869617999979 ], [ 109.377983734, -0.031939126999942 ], [ 109.377318012, -0.032569342999979 ], [ 109.377317263, -0.032569965999934 ], [ 109.377281191, -0.032601793999959 ], [ 109.37684925, -0.032982918999949 ], [ 109.376237223, -0.032363618999964 ], [ 109.376225965, -0.03237165999997 ], [ 109.375684072, -0.032758727999979 ], [ 109.375362153, -0.032401690999963 ], [ 109.375210626, -0.032263814999968 ], [ 109.375177583, -0.032233748999943 ], [ 109.375173563, -0.032230091999966 ], [ 109.374872089, -0.032523526999977 ], [ 109.37487803991786, -0.032528897343657 ], [ 109.374547308819217, -0.032863223345541 ], [ 109.374550516, -0.032865196999978 ], [ 109.37458819, -0.032903862999944 ], [ 109.374420281, -0.033076522999984 ], [ 109.374381922, -0.033115966999957 ], [ 109.374494587, -0.033212062999951 ], [ 109.374791958, -0.032962520999951 ], [ 109.375407367, -0.03354805599997 ], [ 109.375434529, -0.033573898999986 ], [ 109.375002174, -0.034004195999959 ], [ 109.37499783, -0.034008518999946 ], [ 109.375190745, -0.034179204999929 ], [ 109.375503153, -0.034455614999962 ], [ 109.375480279, -0.034619896999976 ], [ 109.375473502, -0.034625548999938 ], [ 109.375442688, -0.034651243999973 ], [ 109.375512511, -0.034921426999979 ], [ 109.375321196, -0.035129378999964 ], [ 109.375097199, -0.035295302999944 ], [ 109.375096607, -0.035295740999979 ], [ 109.375096656, -0.035295789999976 ], [ 109.375079535, -0.035311134999977 ], [ 109.37521728, -0.035445842999944 ], [ 109.375505526, -0.035727732999936 ], [ 109.375757593, -0.035974242999949 ], [ 109.3764524, -0.036653729999955 ], [ 109.376460126, -0.036661285999974 ], [ 109.376458525, -0.03666258099997 ], [ 109.376925519, -0.037135412999934 ], [ 109.376613968, -0.037383716999958 ], [ 109.376594851, -0.037398952999988 ], [ 109.376629173, -0.037431688999971 ], [ 109.376793181, -0.037588120999944 ], [ 109.377387789, -0.038155259999948 ], [ 109.377610945, -0.038358840999937 ], [ 109.377609537, -0.038360128999955 ], [ 109.377609574, -0.038360464999926 ], [ 109.377615089178235, -0.03835543363068 ], [ 109.377907648, -0.038088538999946 ], [ 109.378010322, -0.038190576999968 ], [ 109.378052722, -0.038220862999939 ], [ 109.378131665, -0.038277250999956 ], [ 109.378474453, -0.038469419999958 ], [ 109.378676963, -0.038582947999948 ], [ 109.378680658, -0.038585018999926 ], [ 109.378603401, -0.038723068999958 ], [ 109.37855629, -0.038807249999935 ], [ 109.378574062, -0.038822368999952 ], [ 109.379109039, -0.039277498999977 ], [ 109.379575936, -0.039284793999976 ], [ 109.379641396, -0.039285816999956 ], [ 109.380406692, -0.039169767999974 ], [ 109.380647159, -0.039133303999966 ], [ 109.380655206, -0.039132083999968 ], [ 109.380656201, -0.039131932999963 ], [ 109.381167762, -0.039036274999949 ], [ 109.381174479, -0.039047937999964 ], [ 109.381622018, -0.039825014999963 ], [ 109.382001384, -0.040483720999933 ], [ 109.381831417, -0.040514253999959 ], [ 109.381395839, -0.040592501999922 ], [ 109.381349059, -0.040617144999946 ], [ 109.380878791, -0.04086487499996 ], [ 109.380906703, -0.04091234599997 ], [ 109.381186771, -0.041388673999963 ], [ 109.381799147, -0.042430176999971 ], [ 109.382097546, -0.042937680999961 ], [ 109.382600744, -0.042840734999978 ], [ 109.383226244, -0.042613668999936 ], [ 109.38322776, -0.042613118999957 ], [ 109.383229432, -0.042616021999948 ], [ 109.383861859, -0.043714126999933 ], [ 109.383410149, -0.043875918999957 ], [ 109.383181785, -0.043957713999934 ], [ 109.382429629, -0.044227119999956 ], [ 109.382555912, -0.044416792999935 ], [ 109.382841758, -0.044832898999975 ], [ 109.382937163, -0.044971779999968 ], [ 109.38337433, -0.045591098999975 ], [ 109.383944162, -0.046398360999949 ], [ 109.384485484, -0.047165234999963 ], [ 109.384514558, -0.04720642299998 ], [ 109.384714160441106, -0.047489193148071 ], [ 109.385231493, -0.048222080999958 ], [ 109.385254839, -0.048255153999944 ], [ 109.385258839, -0.048260495999965 ], [ 109.385323098, -0.048346300999922 ], [ 109.385665836, -0.04880396199997 ], [ 109.38610242, -0.049386937999943 ], [ 109.386245442712251, -0.049579352929696 ], [ 109.386636028, -0.050104824999949 ], [ 109.387559108, -0.051346686999983 ], [ 109.387429911, -0.051450981999959 ], [ 109.384934826, -0.053465154999965 ], [ 109.384928916, -0.053469925999937 ], [ 109.384924932, -0.053471457999932 ], [ 109.384918671, -0.053477718999955 ], [ 109.38489027, -0.053506119999959 ], [ 109.384871148, -0.053525240999935 ], [ 109.384863623, -0.053531499999972 ], [ 109.38457445, -0.053772050999958 ], [ 109.384485013, -0.053845227999947 ], [ 109.384227869, -0.054055619999929 ], [ 109.384105791, -0.054157478999972 ], [ 109.383815642, -0.054399578999955 ], [ 109.383747062, -0.054454510999968 ], [ 109.38357131, -0.054595299999967 ], [ 109.383470719, -0.05467587999994 ], [ 109.383458148, -0.054685949999967 ], [ 109.383444701, -0.054696718999935 ], [ 109.38343318, -0.05470594999997 ], [ 109.383421112, -0.054715611999945 ], [ 109.383407948, -0.054726160999967 ], [ 109.383397602, -0.054734448999963 ], [ 109.383384931, -0.054744598999949 ], [ 109.383376101, -0.054751669999972 ], [ 109.383366508, -0.054759358999949 ], [ 109.383356771, -0.054767151999965 ], [ 109.383356568, -0.054767319999941 ], [ 109.383338698, -0.054781631999965 ], [ 109.383318549, -0.054797771999983 ], [ 109.383314149, -0.054801299999957 ], [ 109.38330385, -0.054809860999977 ], [ 109.383288912, -0.054822280999929 ], [ 109.38327008, -0.054837941999946 ], [ 109.383254721, -0.054850716999964 ], [ 109.383238738, -0.054864007999933 ], [ 109.383222282, -0.054877688999967 ], [ 109.383210928, -0.054887130999934 ], [ 109.383193589, -0.054901549999953 ], [ 109.383189461, -0.054904979999955 ], [ 109.383184873, -0.054908796999933 ], [ 109.383181311, -0.054911758999942 ], [ 109.383178711, -0.054913919999932 ], [ 109.383177911, -0.054914587999974 ], [ 109.382581598, -0.055410447999974 ], [ 109.382507231, -0.05547036999997 ], [ 109.382220532, -0.055701398999936 ], [ 109.382058222, -0.055832190999987 ], [ 109.381967869, -0.055905000999929 ], [ 109.381842698, -0.056005869999988 ], [ 109.381770278, -0.056064228999958 ], [ 109.381397191, -0.056367081999952 ], [ 109.381323919, -0.056426566999968 ], [ 109.381253576, -0.056484824999931 ], [ 109.381217492, -0.056514708999946 ], [ 109.381212721, -0.056518660999929 ], [ 109.381209271, -0.056521518999944 ], [ 109.38089594, -0.056781021999941 ], [ 109.380780412, -0.056854540999952 ], [ 109.380336681, -0.057135486999927 ], [ 109.380237021, -0.057208077999974 ], [ 109.380124008, -0.057290397999966 ], [ 109.379632711, -0.057662666999938 ], [ 109.37912454, -0.058047721999971 ], [ 109.37910526, -0.058062330999981 ], [ 109.378695661, -0.058356400999973 ], [ 109.378610779, -0.058415129999963 ], [ 109.37828527, -0.058640337999978 ], [ 109.37818175, -0.058711958999934 ], [ 109.377908881, -0.058900741999934 ], [ 109.377792442, -0.058981300999967 ], [ 109.377707701, -0.059031961999956 ], [ 109.377550888, -0.059125710999984 ], [ 109.377357252, -0.059258419999933 ], [ 109.377151458, -0.059399467999919 ], [ 109.377142298, -0.059405742999963 ], [ 109.377138581, -0.059408290999953 ], [ 109.377127199, -0.059416088999968 ], [ 109.377098101, -0.059436030999956 ], [ 109.37693768, -0.059545978999955 ], [ 109.376708059, -0.059703349999949 ], [ 109.376464549, -0.059888961999947 ], [ 109.376332592, -0.059989541999937 ], [ 109.376125249, -0.060135451999948 ], [ 109.37600088, -0.06022297099997 ], [ 109.376001363, -0.060223418999956 ], [ 109.375867858, -0.06033087799995 ], [ 109.375666528, -0.060484329999958 ], [ 109.375663178, -0.060486880999982 ], [ 109.375636201, -0.060507440999968 ], [ 109.375545679, -0.060576436999957 ], [ 109.375437252, -0.060659079999945 ], [ 109.375058708, -0.060933857999944 ], [ 109.374757212, -0.061152698999941 ], [ 109.37461381, -0.061275397999975 ], [ 109.374608019, -0.061280351999936 ], [ 109.37447038, -0.061398117999945 ], [ 109.374266221, -0.061572799999962 ], [ 109.374042812, -0.061740930999977 ], [ 109.374011538, -0.061764469999957 ], [ 109.37399463, -0.06177949899996 ], [ 109.373694979, -0.062045851999936 ], [ 109.373650378, -0.062085499999966 ], [ 109.373646181, -0.062088657999943 ], [ 109.373261866, -0.062377798999937 ], [ 109.372924919, -0.062631301999949 ], [ 109.372907231, -0.062643670999936 ], [ 109.372779429, -0.06273305899993 ], [ 109.37245244, -0.062396607999979 ], [ 109.37219775, -0.062134548999947 ], [ 109.371973625, -0.06183755899998 ], [ 109.371869061, -0.061698998999935 ], [ 109.371767363, -0.061564237999964 ], [ 109.371227002, -0.06084819299997 ], [ 109.371197947, -0.060809691999968 ], [ 109.371131443, -0.060721565999932 ], [ 109.371104893, -0.060686385999928 ], [ 109.370878004, -0.060385731999938 ], [ 109.370559089, -0.059963131999957 ], [ 109.370558159, -0.059961900999956 ], [ 109.370395931, -0.059746931999935 ], [ 109.370136373, -0.059402988999982 ], [ 109.37013334, -0.059398969999969 ], [ 109.369983666086554, -0.059200632970263 ], [ 109.369948348, -0.059153831999932 ], [ 109.369857879, -0.059033949999961 ], [ 109.369855148, -0.059030330999978 ], [ 109.369808396, -0.058968379999955 ], [ 109.368957857, -0.057841318999977 ], [ 109.36795592, -0.058598319999932 ], [ 109.36795589, -0.058598339999949 ], [ 109.36793717, -0.058614289999987 ], [ 109.36769809, -0.05881795999994 ], [ 109.36668717, -0.059679159999982 ], [ 109.36606884, -0.060168129999971 ], [ 109.36605745, -0.06017713999995 ], [ 109.366056022, -0.060178268999947 ], [ 109.36604542, -0.060186649999931 ], [ 109.36604536, -0.060186779999927 ], [ 109.366043962, -0.060189806999973 ], [ 109.36604057, -0.060197148999985 ], [ 109.36595348, -0.060385649999941 ], [ 109.36594987, -0.060393473999975 ], [ 109.365942322, -0.060409832999943 ], [ 109.365935018, -0.060425663999985 ], [ 109.365934549, -0.060425738999935 ], [ 109.365925934, -0.060444327999967 ], [ 109.365882356, -0.06053835799998 ], [ 109.365819794, -0.060673349999942 ], [ 109.365575711, -0.061200011999975 ], [ 109.365330809, -0.061724887999961 ], [ 109.365272612, -0.061849616999956 ], [ 109.365108208, -0.062203441999952 ], [ 109.364960713, -0.062520875999952 ], [ 109.364743596, -0.06298489999995 ], [ 109.3643157, -0.063923463999968 ], [ 109.364264146, -0.064034689999973 ], [ 109.364172888, -0.064231575999939 ], [ 109.364121849, -0.064344298999975 ], [ 109.364074879, -0.064448035999939 ], [ 109.36401789, -0.06457456699997 ], [ 109.363865641, -0.064912600999951 ], [ 109.363761037, -0.065149971999982 ], [ 109.36363882084413, -0.065427308174334 ], [ 109.363554193605523, -0.065619346570866 ], [ 109.363461832, -0.065828935999946 ], [ 109.363275292, -0.066253083999933 ], [ 109.363234327, -0.066346229999968 ], [ 109.363212479, -0.066395904999982 ], [ 109.363182196, -0.06646476199996 ], [ 109.363153557, -0.066528634999941 ], [ 109.363137875, -0.066560974999964 ], [ 109.363128147, -0.066581035999954 ], [ 109.363099303, -0.066640978999941 ], [ 109.363069576, -0.066702756999976 ], [ 109.363013062, -0.066813472999974 ], [ 109.363002173, -0.066834805999971 ], [ 109.362971628, -0.066894645999986 ], [ 109.362954631, -0.066927944999982 ], [ 109.362945262, -0.066946299999924 ], [ 109.362895624, -0.067043544999942 ], [ 109.362795253, -0.067240179999945 ], [ 109.362688597, -0.067449129999942 ], [ 109.36265796, -0.067509148999941 ], [ 109.362653143, -0.06751858699995 ], [ 109.362581557, -0.067658830999963 ], [ 109.36247221, -0.067873051999932 ], [ 109.362444863, -0.067926626999964 ], [ 109.36236606, -0.068081008999971 ], [ 109.362347962, -0.068116463999959 ], [ 109.362318356, -0.068174464999974 ], [ 109.362262373, -0.068284141999931 ], [ 109.362221254, -0.068364694999952 ], [ 109.362165395, -0.068474130999955 ], [ 109.362096287, -0.068609518999954 ], [ 109.362077466, -0.068646390999966 ], [ 109.362073003, -0.068655133999936 ], [ 109.362072485, -0.068656149999922 ], [ 109.362067057, -0.068666783999962 ], [ 109.361982828, -0.068831795999935 ], [ 109.361963833, -0.068869008999969 ], [ 109.361871934, -0.069049047999955 ], [ 109.361856913, -0.069078473999979 ], [ 109.361772889, -0.069243084999924 ], [ 109.36177236, -0.069244120999939 ], [ 109.36177233, -0.069244183999958 ], [ 109.361767263, -0.069254107999947 ], [ 109.361758724, -0.069270835999929 ], [ 109.361754771, -0.069278578999962 ], [ 109.361750177, -0.06928758 ], [ 109.361749742, -0.069288431999957 ], [ 109.36174067, -0.069306204999983 ], [ 109.361736026, -0.069315303999936 ], [ 109.361735597, -0.069316142999985 ], [ 109.36173209, -0.069323013999967 ], [ 109.361731882, -0.06932397199996 ], [ 109.36170355, -0.069379060999962 ], [ 109.361704182, -0.06937768799997 ], [ 109.36169434, -0.069396969999959 ], [ 109.361691149, -0.069402250999934 ], [ 109.361670455, -0.069436502999961 ], [ 109.36154012, -0.069652229999979 ], [ 109.361465857, -0.069775152999971 ], [ 109.361309619, -0.070033748999956 ], [ 109.360889352, -0.070729360999959 ], [ 109.360470483, -0.071422660999936 ], [ 109.360426365, -0.071495683999954 ], [ 109.360285588, -0.071728698999956 ], [ 109.36027898, -0.07173963699996 ], [ 109.360207459, -0.071858014999982 ], [ 109.360111058, -0.072017572999925 ], [ 109.360109977, -0.072019361999936 ], [ 109.360090568, -0.072051485999971 ], [ 109.360061692, -0.072099279999979 ], [ 109.359777772, -0.072577230999968 ], [ 109.359758389, -0.072609862999976 ], [ 109.359690969, -0.072723357999967 ], [ 109.359663042, -0.072770827999929 ], [ 109.359620362, -0.072843380999925 ], [ 109.359587362, -0.072899481999969 ], [ 109.359576477, -0.07291798799998 ], [ 109.35954367, -0.072973760999956 ], [ 109.359457638, -0.073120018999926 ], [ 109.359453698, -0.073126718999962 ], [ 109.3593394, -0.073321022999951 ], [ 109.359329138, -0.073338468999965 ], [ 109.359247478, -0.073477288999928 ], [ 109.359244515, -0.073482327999956 ], [ 109.359143272, -0.073654432999945 ], [ 109.359130301, -0.073676481999938 ], [ 109.358924671, -0.074026051999975 ], [ 109.358899079, -0.074069558999957 ], [ 109.358724162, -0.074366909999986 ], [ 109.358710379, -0.074390343999946 ], [ 109.35870361, -0.074401849999966 ], [ 109.358602814, -0.074542351999986 ], [ 109.358601878, -0.074543654999958 ], [ 109.358483621, -0.074708499999925 ], [ 109.358273831, -0.075000937999964 ], [ 109.358247332, -0.075043794999952 ], [ 109.358029288, -0.075396433 ], [ 109.357920142, -0.075572952999953 ], [ 109.357920081, -0.075573050999941 ], [ 109.357882389905967, -0.07563400864714 ], [ 109.357721732, -0.075893839999943 ], [ 109.357702426, -0.075925063999944 ], [ 109.35765653, -0.075999290999955 ], [ 109.357152412, -0.076814595999968 ], [ 109.357101882, -0.076896315999944 ], [ 109.35709951, -0.076900152999938 ], [ 109.356988534, -0.077079633999976 ], [ 109.35680792, -0.07737173799995 ], [ 109.356800065, -0.077384441999927 ], [ 109.356593152, -0.077719078999967 ], [ 109.35659137, -0.077721960999958 ], [ 109.356497754, -0.077873363999975 ], [ 109.356402253, -0.07802781699997 ], [ 109.356355079, -0.078104110999966 ], [ 109.356265291, -0.07824932099993 ], [ 109.35626383, -0.078251682999961 ], [ 109.356073217, -0.078559959999948 ], [ 109.356068588, -0.07856744799995 ], [ 109.356067251, -0.078569610999978 ], [ 109.355864439, -0.078897618999973 ], [ 109.355863284, -0.078899486999949 ], [ 109.35566155, -0.079225747999951 ], [ 109.355660569, -0.079227669999972 ], [ 109.355654721, -0.079239140999963 ], [ 109.355573762, -0.079397940999969 ], [ 109.355441929703716, -0.079656537116846 ], [ 109.355439211, -0.079661869999939 ], [ 109.355406999, -0.079725053999945 ], [ 109.355399893, -0.079738990999942 ], [ 109.355289169442912, -0.079956184315297 ], [ 109.355279221, -0.079975698999933 ], [ 109.355217913, -0.080095957999956 ], [ 109.35510254, -0.080322269999959 ], [ 109.35500761, -0.080450059999976 ], [ 109.355003644, -0.080455398999967 ], [ 109.354996697, -0.080464750999961 ], [ 109.35498796, -0.08047651299996 ], [ 109.35489303, -0.080604301999934 ], [ 109.35478751, -0.080746347999945 ], [ 109.354764978, -0.080776681999964 ], [ 109.354549091, -0.081067297999942 ], [ 109.354540259, -0.081079185999962 ], [ 109.354306656, -0.081393650999937 ], [ 109.35428451, -0.081423461999986 ], [ 109.354280252, -0.081429191999975 ], [ 109.354232661, -0.081493260999944 ], [ 109.354068607, -0.081714101999978 ], [ 109.354016586, -0.081784129999959 ], [ 109.353703738, -0.082205270999966 ], [ 109.353632171, -0.082301610999937 ], [ 109.353552076, -0.08240942899994 ], [ 109.353129988, -0.082977628999968 ], [ 109.353031219, -0.083110583999944 ], [ 109.352835203, -0.083374448999965 ], [ 109.352736038, -0.083507942999971 ], [ 109.352734718, -0.083509720999936 ], [ 109.352532641, -0.083781746999935 ], [ 109.352464042, -0.083874088999945 ], [ 109.352285628, -0.084114262999948 ], [ 109.352263209, -0.084144442999956 ], [ 109.35225787, -0.084151628999968 ], [ 109.352202788, -0.084225780999932 ], [ 109.352108247, -0.084374018999935 ], [ 109.351668342, -0.08506377099997 ], [ 109.35166731, -0.085065387999972 ], [ 109.351591906, -0.085183619999959 ], [ 109.35137257, -0.085527530999972 ], [ 109.35113562, -0.085899059999973 ], [ 109.35105439, -0.086026426999984 ], [ 109.351039821, -0.08604926999993 ], [ 109.350933238, -0.086223678999952 ], [ 109.350729898, -0.086556419999974 ], [ 109.350724012, -0.086566048999949 ], [ 109.35071611, -0.086578979999954 ], [ 109.350357482, -0.087165820999936 ], [ 109.34991455, -0.087890619999941 ], [ 109.349793162, -0.088068034999936 ], [ 109.349584354, -0.088373216999972 ], [ 109.349559789, -0.08840911899995 ], [ 109.34955837, -0.088411191999971 ], [ 109.349525644, -0.088459022999928 ], [ 109.349392063, -0.088654255999928 ], [ 109.349253212, -0.088857191999978 ], [ 109.349192491, -0.088945939999974 ], [ 109.349190003, -0.088949576999933 ], [ 109.349111858, -0.089063791999943 ], [ 109.349079763, -0.089110697999951 ], [ 109.348946779, -0.089305058999977 ], [ 109.348943625, -0.089309669999979 ], [ 109.34890554, -0.08936533199994 ], [ 109.348606101, -0.089802971999979 ], [ 109.348428703, -0.090062248999977 ], [ 109.34832764, -0.090209959999935 ], [ 109.34827552, -0.09030261899994 ], [ 109.348269349, -0.090313587999961 ], [ 109.348139712, -0.090544050999942 ], [ 109.348055331, -0.090694060999964 ], [ 109.347947788, -0.090885252999959 ], [ 109.347919728, -0.090935138999952 ], [ 109.347743262, -0.091248850999929 ], [ 109.34772654, -0.091278580999927 ], [ 109.34771932, -0.091291417999975 ], [ 109.347508821, -0.091665630999957 ], [ 109.346634833, -0.093219386999974 ], [ 109.34613037, -0.094116209999927 ], [ 109.345912421, -0.094410440999977 ], [ 109.344613821, -0.096163545999962 ], [ 109.344565351, -0.096228980999976 ], [ 109.344559609, -0.096236738999961 ], [ 109.343695035, -0.09740391099996 ] ] ] ] } }
]
}
